{
  "type": "FeatureCollection",
  "features": [
    {
      "type": "Feature",
      "properties": {
        "norad_id": 34350,
        "name": "IRIDIUM 33 DEB",
        "group": "iridium-33-debris",
        "lat": -19.77303623628455,
        "lon": -2.2043509241860004,
        "alt_km": 756.3017459008051,
        "timestamp": "2025-12-21T05:44:51.972550+00:00",
        "meta_object_name": "IRIDIUM 33 DEB",
        "meta_object_id": "1997-051ES",
        "meta_epoch": "2025-12-20T12:08:32.676864",
        "meta_mean_motion": 14.45403421,
        "meta_eccentricity": 0.00233571,
        "meta_inclination": 86.3272,
        "meta_ra_of_asc_node": 359.437,
        "meta_arg_of_pericenter": 111.3737,
        "meta_mean_anomaly": 14.544,
        "meta_ephemeris_type": 0,
        "meta_classification_type": "U",
        "meta_norad_cat_id": 34350,
        "meta_element_set_no": 999,
        "meta_rev_at_epoch": 88405,
        "meta_bstar": 0.00023374563,
        "meta_mean_motion_dot": 8.45e-06,
        "meta_mean_motion_ddot": 0,
        "tle_line1": "1 34350U 97051ES  25354.50593376  .00000845  00000+0  23375-3 0  9993",
        "tle_line2": "2 34350  86.3272 359.4370 0023357 111.3737  14.5440 14.45403421884050"
      },
      "geometry": {
        "type": "Point",
        "coordinates": [
          -2.2043509241860004,
          -19.77303623628455
        ]
      }
    },
    {
      "type": "Feature",
      "properties": {
        "norad_id": 34366,
        "name": "IRIDIUM 33 DEB",
        "group": "iridium-33-debris",
        "lat": -34.420225550473575,
        "lon": -131.88954845825523,
        "alt_km": 721.7265839567144,
        "timestamp": "2025-12-21T05:44:51.972561+00:00",
        "meta_object_name": "IRIDIUM 33 DEB",
        "meta_object_id": "1997-051FJ",
        "meta_epoch": "2025-12-20T14:28:26.320224",
        "meta_mean_motion": 14.54113627,
        "meta_eccentricity": 0.0022983,
        "meta_inclination": 86.369,
        "meta_ra_of_asc_node": 45.8934,
        "meta_arg_of_pericenter": 115.1791,
        "meta_mean_anomaly": 9.6225,
        "meta_ephemeris_type": 0,
        "meta_classification_type": "U",
        "meta_norad_cat_id": 34366,
        "meta_element_set_no": 999,
        "meta_rev_at_epoch": 88296,
        "meta_bstar": 0.00058239,
        "meta_mean_motion_dot": 2.489e-05,
        "meta_mean_motion_ddot": 0,
        "tle_line1": "1 34366U 97051FJ  25354.60308241  .00002489  00000+0  58239-3 0  9999",
        "tle_line2": "2 34366  86.3690  45.8934 0022983 115.1791   9.6225 14.54113627882969"
      },
      "geometry": {
        "type": "Point",
        "coordinates": [
          -131.88954845825523,
          -34.420225550473575
        ]
      }
    },
    {
      "type": "Feature",
      "properties": {
        "norad_id": 34375,
        "name": "IRIDIUM 33 DEB",
        "group": "iridium-33-debris",
        "lat": 72.97408664893153,
        "lon": -12.481946545349171,
        "alt_km": 750.8829543351549,
        "timestamp": "2025-12-21T05:44:51.972571+00:00",
        "meta_object_name": "IRIDIUM 33 DEB",
        "meta_object_id": "1997-051FT",
        "meta_epoch": "2025-12-20T12:24:40.051872",
        "meta_mean_motion": 14.18005586,
        "meta_eccentricity": 0.01036912,
        "meta_inclination": 86.4321,
        "meta_ra_of_asc_node": 179.5653,
        "meta_arg_of_pericenter": 102.408,
        "meta_mean_anomaly": 278.8624,
        "meta_ephemeris_type": 0,
        "meta_classification_type": "U",
        "meta_norad_cat_id": 34375,
        "meta_element_set_no": 999,
        "meta_rev_at_epoch": 86822,
        "meta_bstar": 0.00031260448,
        "meta_mean_motion_dot": 6.95e-06,
        "meta_mean_motion_ddot": 0,
        "tle_line1": "1 34375U 97051FT  25354.51713023  .00000695  00000+0  31260-3 0  9999",
        "tle_line2": "2 34375  86.4321 179.5653 0103691 102.4080 278.8624 14.18005586868220"
      },
      "geometry": {
        "type": "Point",
        "coordinates": [
          -12.481946545349171,
          72.97408664893153
        ]
      }
    },
    {
      "type": "Feature",
      "properties": {
        "norad_id": 34376,
        "name": "IRIDIUM 33 DEB",
        "group": "iridium-33-debris",
        "lat": 41.878173575715884,
        "lon": 6.046441302945039,
        "alt_km": 683.4671150144795,
        "timestamp": "2025-12-21T05:44:51.972583+00:00",
        "meta_object_name": "IRIDIUM 33 DEB",
        "meta_object_id": "1997-051FU",
        "meta_epoch": "2025-12-20T18:03:45.456480",
        "meta_mean_motion": 14.62666051,
        "meta_eccentricity": 0.00280843,
        "meta_inclination": 86.2976,
        "meta_ra_of_asc_node": 2.9372,
        "meta_arg_of_pericenter": 140.2366,
        "meta_mean_anomaly": 220.0911,
        "meta_ephemeris_type": 0,
        "meta_classification_type": "U",
        "meta_norad_cat_id": 34376,
        "meta_element_set_no": 999,
        "meta_rev_at_epoch": 88124,
        "meta_bstar": 0.00085931686,
        "meta_mean_motion_dot": 4.418e-05,
        "meta_mean_motion_ddot": 0,
        "tle_line1": "1 34376U 97051FU  25354.75260945  .00004418  00000+0  85932-3 0  9998",
        "tle_line2": "2 34376  86.2976   2.9372 0028084 140.2366 220.0911 14.62666051881245"
      },
      "geometry": {
        "type": "Point",
        "coordinates": [
          6.046441302945039,
          41.878173575715884
        ]
      }
    },
    {
      "type": "Feature",
      "properties": {
        "norad_id": 34486,
        "name": "IRIDIUM 33 DEB",
        "group": "iridium-33-debris",
        "lat": -18.52765353218813,
        "lon": -170.68794881246657,
        "alt_km": 587.5469003800154,
        "timestamp": "2025-12-21T05:44:51.972593+00:00",
        "meta_object_name": "IRIDIUM 33 DEB",
        "meta_object_id": "1997-051GB",
        "meta_epoch": "2025-12-20T00:04:17.796000",
        "meta_mean_motion": 14.96101928,
        "meta_eccentricity": 0.0013908,
        "meta_inclination": 86.3929,
        "meta_ra_of_asc_node": 8.6716,
        "meta_arg_of_pericenter": 91.5412,
        "meta_mean_anomaly": 291.3403,
        "meta_ephemeris_type": 0,
        "meta_classification_type": "U",
        "meta_norad_cat_id": 34486,
        "meta_element_set_no": 999,
        "meta_rev_at_epoch": 89095,
        "meta_bstar": 0.0013547,
        "meta_mean_motion_dot": 0.00015301,
        "meta_mean_motion_ddot": 0,
        "tle_line1": "1 34486U 97051GB  25354.00298375  .00015301  00000+0  13547-2 0  9991",
        "tle_line2": "2 34486  86.3929   8.6716 0013908  91.5412 291.3403 14.96101928890959"
      },
      "geometry": {
        "type": "Point",
        "coordinates": [
          -170.68794881246657,
          -18.52765353218813
        ]
      }
    },
    {
      "type": "Feature",
      "properties": {
        "norad_id": 34487,
        "name": "IRIDIUM 33 DEB",
        "group": "iridium-33-debris",
        "lat": 40.920552920444116,
        "lon": 11.895724571048213,
        "alt_km": 733.0541904221691,
        "timestamp": "2025-12-21T05:44:51.972604+00:00",
        "meta_object_name": "IRIDIUM 33 DEB",
        "meta_object_id": "1997-051GC",
        "meta_epoch": "2025-12-20T11:57:25.083072",
        "meta_mean_motion": 14.43225278,
        "meta_eccentricity": 0.0033198,
        "meta_inclination": 86.343,
        "meta_ra_of_asc_node": 9.0367,
        "meta_arg_of_pericenter": 104.2431,
        "meta_mean_anomaly": 48.2266,
        "meta_ephemeris_type": 0,
        "meta_classification_type": "U",
        "meta_norad_cat_id": 34487,
        "meta_element_set_no": 999,
        "meta_rev_at_epoch": 88360,
        "meta_bstar": 0.00013260723,
        "meta_mean_motion_dot": 4.69e-06,
        "meta_mean_motion_ddot": 0,
        "tle_line1": "1 34487U 97051GC  25354.49820698  .00000469  00000+0  13261-3 0  9997",
        "tle_line2": "2 34487  86.3430   9.0367 0033198 104.2431  48.2266 14.43225278883607"
      },
      "geometry": {
        "type": "Point",
        "coordinates": [
          11.895724571048213,
          40.920552920444116
        ]
      }
    },
    {
      "type": "Feature",
      "properties": {
        "norad_id": 34488,
        "name": "IRIDIUM 33 DEB",
        "group": "iridium-33-debris",
        "lat": 24.752724453153178,
        "lon": 119.8983089478686,
        "alt_km": 474.7828979565129,
        "timestamp": "2025-12-21T05:44:51.972614+00:00",
        "meta_object_name": "IRIDIUM 33 DEB",
        "meta_object_id": "1997-051GD",
        "meta_epoch": "2025-12-20T21:13:54.490080",
        "meta_mean_motion": 15.31302202,
        "meta_eccentricity": 0.00109475,
        "meta_inclination": 86.3254,
        "meta_ra_of_asc_node": 301.7725,
        "meta_arg_of_pericenter": 38.0894,
        "meta_mean_anomaly": 322.1127,
        "meta_ephemeris_type": 0,
        "meta_classification_type": "U",
        "meta_norad_cat_id": 34488,
        "meta_element_set_no": 999,
        "meta_rev_at_epoch": 89364,
        "meta_bstar": 0.0030791067,
        "meta_mean_motion_dot": 0.00094223,
        "meta_mean_motion_ddot": 0,
        "tle_line1": "1 34488U 97051GD  25354.88465845  .00094223  00000+0  30791-2 0  9997",
        "tle_line2": "2 34488  86.3254 301.7725 0010947  38.0894 322.1127 15.31302202893642"
      },
      "geometry": {
        "type": "Point",
        "coordinates": [
          119.8983089478686,
          24.752724453153178
        ]
      }
    }
  ]
}